ADRAS-J                 
1 58992U 24034A   24134.48091698  .00007124  00000+0  66778-3 0  9995
2 58992  98.2112 105.9440 0044775 160.5750 199.7188 14.93592269 12682
